{
  "norad_id": 67376,
  "name": "AETHER-5",
  "history": [
    {
      "epoch": "2026-03-28T21:06:09.080928Z",
      "apogee_km": 608.9501656369594,
      "perigee_km": 599.9166746330211,
      "latitude_deg": 3.966246312380026e-05,
      "longitude_deg": -55.03832832716132,
      "height_km": 604.2839018573608,
      "semi_major_axis_km": 6982.57042013499,
      "eccentricity": 0.00064686,
      "inclination_deg": 97.8033,
      "raan_deg": 87.7929,
      "arg_perigee_deg": 45.3242,
      "mean_anomaly_deg": 314.8501,
      "mean_motion_rev_day": 14.87920665
    },
    {
      "epoch": "2026-03-29T00:19:49.777248Z",
      "apogee_km": 608.943769717669,
      "perigee_km": 599.9181024035161,
      "latitude_deg": -9.097568411971578e-05,
      "longitude_deg": -103.45814662867355,
      "height_km": 604.2766382638405,
      "semi_major_axis_km": 6982.567936060592,
      "eccentricity": 0.0006463,
      "inclination_deg": 97.8031,
      "raan_deg": 87.9252,
      "arg_perigee_deg": 45.1885,
      "mean_anomaly_deg": 314.9855,
      "mean_motion_rev_day": 14.87921459
    },
    {
      "epoch": "2026-03-29T21:18:44.194464Z",
      "apogee_km": 608.8967343817385,
      "perigee_km": 599.9474676843074,
      "latitude_deg": -6.039670279267139e-05,
      "longitude_deg": -58.18617994291363,
      "height_km": 604.161041943799,
      "semi_major_axis_km": 6982.559101033023,
      "eccentricity": 0.00064083,
      "inclination_deg": 97.8032,
      "raan_deg": 88.7856,
      "arg_perigee_deg": 42.7132,
      "mean_anomaly_deg": 317.4581,
      "mean_motion_rev_day": 14.87924283
    },
    {
      "epoch": "2026-03-30T13:27:07.462656Z",
      "apogee_km": 608.85165222857,
      "perigee_km": 599.9765504767074,
      "latitude_deg": 2.5257895240895778e-05,
      "longitude_deg": 59.715720389227705,
      "height_km": 604.0789611086944,
      "semi_major_axis_km": 6982.551101352638,
      "eccentricity": 0.00063552,
      "inclination_deg": 97.8031,
      "raan_deg": 89.4473,
      "arg_perigee_deg": 40.7399,
      "mean_anomaly_deg": 319.4292,
      "mean_motion_rev_day": 14.8792684
    },
    {
      "epoch": "2026-03-30T21:31:19.045344Z",
      "apogee_km": 608.8336902607416,
      "perigee_km": 599.9877798371181,
      "latitude_deg": -1.4967783920885704e-05,
      "longitude_deg": -61.33305330244219,
      "height_km": 604.0402373688178,
      "semi_major_axis_km": 6982.54773504893,
      "eccentricity": 0.00063343,
      "inclination_deg": 97.8031,
      "raan_deg": 89.7782,
      "arg_perigee_deg": 39.8059,
      "mean_anomaly_deg": 320.3621,
      "mean_motion_rev_day": 14.87927916
    },
    {
      "epoch": "2026-03-31T16:53:22.888032Z",
      "apogee_km": 608.7585271066973,
      "perigee_km": 600.0568798971926,
      "latitude_deg": 4.647538410679754e-05,
      "longitude_deg": 8.149923655347315,
      "height_km": 603.9950169929348,
      "semi_major_axis_km": 6982.544703501944,
      "eccentricity": 0.0006231,
      "inclination_deg": 97.8032,
      "raan_deg": 90.5726,
      "arg_perigee_deg": 37.7436,
      "mean_anomaly_deg": 322.4217,
      "mean_motion_rev_day": 14.87928885
    },
    {
      "epoch": "2026-04-01T10:38:36.345408Z",
      "apogee_km": 608.6597749979928,
      "perigee_km": 600.1620142102593,
      "latitude_deg": 6.558015406229056e-05,
      "longitude_deg": 101.8428294960187,
      "height_km": 603.9886227233789,
      "semi_major_axis_km": 6982.547894604126,
      "eccentricity": 0.0006085,
      "inclination_deg": 97.8033,
      "raan_deg": 91.3007,
      "arg_perigee_deg": 35.6976,
      "mean_anomaly_deg": 324.4647,
      "mean_motion_rev_day": 14.87927865
    },
    {
      "epoch": "2026-04-02T17:18:32.143104Z",
      "apogee_km": 608.6249437706174,
      "perigee_km": 600.1704907349686,
      "latitude_deg": 2.438423252387754e-05,
      "longitude_deg": 1.8580585921861956,
      "height_km": 603.8255303054933,
      "semi_major_axis_km": 6982.534717252793,
      "eccentricity": 0.0006054,
      "inclination_deg": 97.8035,
      "raan_deg": 92.5578,
      "arg_perigee_deg": 31.5809,
      "mean_anomaly_deg": 328.577,
      "mean_motion_rev_day": 14.87932077
    },
    {
      "epoch": "2026-04-02T22:09:03.004416Z",
      "apogee_km": 608.6201415326905,
      "perigee_km": 600.1520168431744,
      "latitude_deg": 3.396914541936931e-05,
      "longitude_deg": -70.77078138367584,
      "height_km": 603.7907556335487,
      "semi_major_axis_km": 6982.523079187932,
      "eccentricity": 0.00060638,
      "inclination_deg": 97.8035,
      "raan_deg": 92.7564,
      "arg_perigee_deg": 31.1289,
      "mean_anomaly_deg": 329.0286,
      "mean_motion_rev_day": 14.87935797
    },
    {
      "epoch": "2026-04-03T20:44:47.114880Z",
      "apogee_km": 608.5549074380951,
      "perigee_km": 600.2010265315939,
      "latitude_deg": 4.125732289622152e-06,
      "longitude_deg": -49.70593868016989,
      "height_km": 603.7481619309957,
      "semi_major_axis_km": 6982.514966984844,
      "eccentricity": 0.0005982,
      "inclination_deg": 97.8034,
      "raan_deg": 93.683,
      "arg_perigee_deg": 28.8266,
      "mean_anomaly_deg": 331.328,
      "mean_motion_rev_day": 14.8793839
    },
    {
      "epoch": "2026-04-04T20:57:21.271968Z",
      "apogee_km": 608.5053766983019,
      "perigee_km": 600.2408777117416,
      "latitude_deg": 4.79232263033827e-05,
      "longitude_deg": -52.84991503646129,
      "height_km": 603.6914946137391,
      "semi_major_axis_km": 6982.5101272050215,
      "eccentricity": 0.0005918,
      "inclination_deg": 97.8038,
      "raan_deg": 94.6756,
      "arg_perigee_deg": 26.0748,
      "mean_anomaly_deg": 334.0766,
      "mean_motion_rev_day": 14.87939937
    },
    {
      "epoch": "2026-04-05T13:05:43.950048Z",
      "apogee_km": 608.4771441222738,
      "perigee_km": 600.2532926594986,
      "latitude_deg": 6.432134449086041e-05,
      "longitude_deg": 65.05455846424142,
      "height_km": 603.6350110467898,
      "semi_major_axis_km": 6982.502218390886,
      "eccentricity": 0.00058889,
      "inclination_deg": 97.8037,
      "raan_deg": 95.3374,
      "arg_perigee_deg": 23.8553,
      "mean_anomaly_deg": 336.2936,
      "mean_motion_rev_day": 14.87942465
    },
    {
      "epoch": "2026-04-05T17:56:14.713728Z",
      "apogee_km": 608.4407176919449,
      "perigee_km": 600.2851577646788,
      "latitude_deg": 8.980804867652627e-06,
      "longitude_deg": -7.57356525058355,
      "height_km": 603.6528902953049,
      "semi_major_axis_km": 6982.499937728312,
      "eccentricity": 0.000584,
      "inclination_deg": 97.8039,
      "raan_deg": 95.5363,
      "arg_perigee_deg": 23.4639,
      "mean_anomaly_deg": 336.6843,
      "mean_motion_rev_day": 14.87943194
    },
    {
      "epoch": "2026-04-05T22:46:45.508512Z",
      "apogee_km": 608.4473114607417,
      "perigee_km": 600.281974039709,
      "latitude_deg": -1.9561569111703836e-05,
      "longitude_deg": -80.20232257277594,
      "height_km": 603.639604929382,
      "semi_major_axis_km": 6982.501642750225,
      "eccentricity": 0.0005847,
      "inclination_deg": 97.8039,
      "raan_deg": 95.7347,
      "arg_perigee_deg": 23.0887,
      "mean_anomaly_deg": 337.0591,
      "mean_motion_rev_day": 14.87942649
    },
    {
      "epoch": "2026-04-07T11:54:01.167840Z",
      "apogee_km": 608.3363461347344,
      "perigee_km": 600.3707209340791,
      "latitude_deg": -2.1723389261398958e-05,
      "longitude_deg": 82.98022051985528,
      "height_km": 603.6066844053955,
      "semi_major_axis_km": 6982.4905335344065,
      "eccentricity": 0.0005704,
      "inclination_deg": 97.8042,
      "raan_deg": 97.257,
      "arg_perigee_deg": 18.4404,
      "mean_anomaly_deg": 341.7018,
      "mean_motion_rev_day": 14.879462
    },
    {
      "epoch": "2026-04-08T10:29:44.464416Z",
      "apogee_km": 608.260768136689,
      "perigee_km": 600.4352179056095,
      "latitude_deg": -2.127057503787794e-05,
      "longitude_deg": 104.04865676130349,
      "height_km": 603.595062399711,
      "semi_major_axis_km": 6982.4849930211485,
      "eccentricity": 0.00056037,
      "inclination_deg": 97.8043,
      "raan_deg": 98.1838,
      "arg_perigee_deg": 14.6803,
      "mean_anomaly_deg": 345.4575,
      "mean_motion_rev_day": 14.87947971
    },
    {
      "epoch": "2026-04-09T12:19:08.288832Z",
      "apogee_km": 608.185167418098,
      "perigee_km": 600.5016459785675,
      "latitude_deg": -1.829985696663003e-05,
      "longitude_deg": 76.6977601129618,
      "height_km": 603.6101891507318,
      "semi_major_axis_km": 6982.480406698332,
      "eccentricity": 0.0005502,
      "inclination_deg": 97.8041,
      "raan_deg": 99.2427,
      "arg_perigee_deg": 11.4058,
      "mean_anomaly_deg": 348.7282,
      "mean_motion_rev_day": 14.87949437
    },
    {
      "epoch": "2026-04-10T12:31:41.798784Z",
      "apogee_km": 608.1198652465437,
      "perigee_km": 600.5592396355605,
      "latitude_deg": -6.21603910521743e-05,
      "longitude_deg": 73.55659766645613,
      "height_km": 603.6351845179602,
      "semi_major_axis_km": 6982.476552441052,
      "eccentricity": 0.0005414,
      "inclination_deg": 97.8039,
      "raan_deg": 100.2354,
      "arg_perigee_deg": 8.6307,
      "mean_anomaly_deg": 351.5001,
      "mean_motion_rev_day": 14.87950669
    },
    {
      "epoch": "2026-04-11T20:48:26.373024Z",
      "apogee_km": 608.0293475257495,
      "perigee_km": 600.6446830072027,
      "latitude_deg": -2.200210301121297e-05,
      "longitude_deg": -50.631189709714675,
      "height_km": 603.6913403841532,
      "semi_major_axis_km": 6982.474015266475,
      "eccentricity": 0.0005288,
      "inclination_deg": 97.8038,
      "raan_deg": 101.559,
      "arg_perigee_deg": 4.7962,
      "mean_anomaly_deg": 355.3304,
      "mean_motion_rev_day": 14.8795148
    },
    {
      "epoch": "2026-04-13T06:42:01.063008Z",
      "apogee_km": 607.9677869013767,
      "perigee_km": 600.6968019756914,
      "latitude_deg": -7.573454002623084e-05,
      "longitude_deg": 160.9719406668288,
      "height_km": 603.7351933936769,
      "semi_major_axis_km": 6982.469294438533,
      "eccentricity": 0.00052066,
      "inclination_deg": 97.8036,
      "raan_deg": 102.9486,
      "arg_perigee_deg": 2.8035,
      "mean_anomaly_deg": 357.3209,
      "mean_motion_rev_day": 14.87952989
    }
  ]
}